[{"name":"LEMUR-2-ROUNDTRIPPER","l1":"1 62711U 25009DG  26183.66294806  .00009531  00000+0  69287-3 0  9996","l2":"2 62711  97.7227 266.3214 0004848  93.9724 266.2056 15.04043156 79951","cat":"other"},{"name":"LEMUR-2-MYNAMEISJEFF","l1":"1 62712U 25009DH  26183.66136619  .00009665  00000+0  70270-3 0  9996","l2":"2 62712  97.7276 266.7104 0003688 126.8908 233.2656 15.04035905 79952","cat":"other"},{"name":"LEMUR-2-LEIA-PHILIP","l1":"1 63246U 25052AN  26183.43990182  .00002006  00000+0  17769-3 0  9991","l2":"2 63246  97.6813  75.1327 0004392 156.0283 204.1144 14.97356498 70958","cat":"other"},{"name":"LEMUR-2-LIA-MARTIN","l1":"1 63248U 25052AQ  26183.64004010  .00005802  00000+0  49698-3 0  9995","l2":"2 63248  97.6863  75.8271 0004686 122.6554 237.5121 14.97926983 70997","cat":"other"},{"name":"LEMUR-2-DELOITTE-1","l1":"1 63259U 25052BB  26183.41806816  .00004296  00000+0  37152-3 0  9994","l2":"2 63259  97.6897  75.9405 0002511  67.7482 292.4006 14.97706500 70971","cat":"other"},{"name":"LEMUR-2-EMERSONROSE","l1":"1 63261U 25052BD  26183.64525036  .00005208  00000+0  43236-3 0  9998","l2":"2 63261  97.6867  76.7500 0002502  76.9084 283.2418 14.99195276 71055","cat":"other"},{"name":"LEMUR-2-MARACHE-FRAN","l1":"1 63262U 25052BE  26183.67661771  .00005224  00000+0  42213-3 0  9991","l2":"2 63262  97.6891  77.1310 0004330 313.7658  46.3207 15.00234829 71085","cat":"other"},{"name":"LEMUR-2-THEFALCONER","l1":"1 63264U 25052BG  26183.51353553  .00004899  00000+0  42529-3 0  9999","l2":"2 63264  97.6840  75.6367 0001154  25.8688 334.2592 14.97488536 70986","cat":"other"},{"name":"LEMUR-2-UNTITLED-SC","l1":"1 63351U 25061A   26183.69134664  .00004335  00000+0  24444-3 0  9996","l2":"2 63351  97.5644 158.9412 0017905 206.6413 153.3900 15.13576910 69935","cat":"other"},{"name":"LEMUR-2-ESPERANZA","l1":"1 63352U 25061B   26183.66754356  .00004356  00000+0  24504-3 0  9990","l2":"2 63352  97.5653 159.0146 0017504 205.7921 154.2440 15.13670577 69934","cat":"other"},{"name":"LEMUR-2-KREMPEL-BRO2","l1":"1 63353U 25061C   26183.69004678  .00004465  00000+0  24787-3 0  9993","l2":"2 63353  97.5699 159.5902 0018655 198.2547 161.8017 15.14107661 69954","cat":"other"},{"name":"LEMUR-2-THERMORAPTOR","l1":"1 63354U 25061D   26183.67128895  .00004677  00000+0  25893-3 0  9994","l2":"2 63354  97.5705 159.6501 0018372 197.0884 162.9731 15.14192332 69950","cat":"other"},{"name":"LEMUR-2-NEUROSPICY","l1":"1 63355U 25061E   26183.44353938  .00004047  00000+0  22402-3 0  9992","l2":"2 63355  97.5629 159.0381 0016114 200.8078 159.2500 15.14306072 69924","cat":"other"},{"name":"LEMUR-2-TILLINFINITY","l1":"1 63356U 25061F   26183.67108339  .00004625  00000+0  25117-3 0  9999","l2":"2 63356  97.5617 159.5656 0017716 188.1944 171.9001 15.14892799 69980","cat":"other"},{"name":"LEMUR-2-KREMPEL-BRO1","l1":"1 63357U 25061G   26183.77866060  .00004049  00000+0  22146-3 0  9992","l2":"2 63357  97.5618 159.5841 0018334 189.2917 170.7978 15.14699393 69993","cat":"other"},{"name":"LEMUR-2-LANGER2SPACE","l1":"1 63358U 25061H   26183.67613697  .00004649  00000+0  25615-3 0  9998","l2":"2 63358  97.5623 159.2900 0016074 198.2780 161.7876 15.14393477 69968","cat":"other"},{"name":"LEMUR-2-BALTO","l1":"1 63395U 25052BH  26183.66128808  .00006632  00000+0  53413-3 0  9994","l2":"2 63395  97.6925  77.0925 0006084  14.6561 345.4837 15.00256925 71082","cat":"other"},{"name":"LEMUR-2-KRISH","l1":"1 64561U 25135AK  26183.32169869  .00006184  00000+0  55146-3 0  9994","l2":"2 64561  97.7757 298.0944 0001401 107.1377 252.9998 14.96342206 56185","cat":"other"},{"name":"LEMUR-2-HUBBLE-4","l1":"1 64565U 25135AP  26183.54696617  .00001929  00000+0  18795-3 0  9999","l2":"2 64565  97.7710 297.2716 0001545 200.2756 159.8403 14.93656519 56167","cat":"other"},{"name":"LEMUR-2-SEJONG-2","l1":"1 64586U 25135BL  26183.74787870  .00005363  00000+0  47300-3 0  9996","l2":"2 64586  97.7719 298.6636 0002741 274.3996  85.6912 14.96832546 56274","cat":"other"},{"name":"LEMUR-2-HUBBLE-5","l1":"1 64840U 25135BT  26183.76116616  .00001469  00000+0  14252-3 0  9998","l2":"2 64840  97.7732 298.1391 0004112 291.4714  68.6067 14.94183906 56232","cat":"other"},{"name":"LEMUR-2-KARENDARRELL","l1":"1 64841U 25135BU  26183.59226215  .00009205  00000+0  73699-3 0  9993","l2":"2 64841  97.7696 299.7762 0011149 145.6467 214.5479 15.00343923 56328","cat":"other"},{"name":"LEMUR-2-LUCILLE-ROSE","l1":"1 65403U 25135BV  26183.56568941  .00007921  00000+0  63455-3 0  9992","l2":"2 65403  97.7740 299.7827 0013210 228.4002 131.6090 15.00348433 50942","cat":"other"},{"name":"LEMUR-2-AFFIE-WAUWIE","l1":"1 66295U 25248C   26183.62122531  .00022617  00000+0  82533-3 0  9992","l2":"2 66295  45.3935  31.3325 0008240 184.8356 175.2454 15.27806899 36951","cat":"other"},{"name":"LEMUR-2-DEANANDMAEVE","l1":"1 66678U 25276N   26183.19436209  .00007503  00000+0  35220-3 0  9998","l2":"2 66678  97.4208 256.4220 0004424 315.6162  44.4718 15.19917633 32697","cat":"other"},{"name":"LEMUR-2-STAS-GORBUK","l1":"1 66686U 25276W   26183.67342262  .00006824  00000+0  32410-3 0  9998","l2":"2 66686  97.4241 256.9468 0003659 312.5250  47.5675 15.19544822 32765","cat":"other"},{"name":"LEMUR-2-TEODOR","l1":"1 66768U 25276DG  26183.50865047  .00006844  00000+0  30971-3 0  9994","l2":"2 66768  97.4148 257.0404 0002372 101.2671 258.8831 15.21218275 32770","cat":"other"},{"name":"LEMUR-2-LAILA","l1":"1 66776U 25276DQ  26183.21725095  .00007374  00000+0  33128-3 0  9995","l2":"2 66776  97.4169 256.8837 0002835 114.0057 246.1475 15.21439154 32734","cat":"other"},{"name":"LEMUR-2-CELIJO-SB-PK","l1":"1 66781U 25276DW  26183.44557846  .00007687  00000+0  61945-3 0  9998","l2":"2 66781  97.5214 253.7211 0007767  95.7431 264.4679 15.00160507 24914","cat":"other"},{"name":"LEMUR-2-FINNIAN","l1":"1 66782U 25276DX  26182.95187135  .00003301  00000+0  26644-3 0  9990","l2":"2 66782  97.5330 253.4795 0008478  45.8769 314.3151 15.00493510 22212","cat":"other"}]